NORAD_CAT_ID,OBJECT_NAME,OBJECT_TYPE,EPOCH,MEAN_MOTION,ECCENTRICITY,INCLINATION,RA_OF_ASC_NODE,ARG_OF_PERICENTER,MEAN_ANOMALY,BSTAR,MEAN_MOTION_DOT,MEAN_MOTION_DDOT,TLE_LINE0,TLE_LINE1,TLE_LINE2,SEMIMAJOR_AXIS,PERIOD,APOGEE,PERIGEE,DECAYED
55957.0,STARLINK-5884,PAYLOAD,2023-09-13 22:00:00,15.43288207,0.0003577,70.0002,35.4298,280.6264,69.9488,-0.022586,-0.00926058,0.0,0 STARLINK-5884,1 55957U 23037AV  23256.91667824 -.00926058  00000-0 -22586-1 0  9993,2 55957  70.0002  35.4298 0003577 280.6264  69.9488 15.43288207  6014,6814.549,93.307,438.852,433.977,0.0
55957.0,STARLINK-5884,PAYLOAD,2023-09-14 14:00:01,15.41996179,0.0003458,70.0007,33.6307,277.0922,174.7452,-0.024247,-0.00949678,0.0,0 STARLINK-5884,1 55957U 23037AV  23257.58335648 -.00949678  00000-0 -24247-1 0  9992,2 55957  70.0007  33.6307 0003458 277.0922 174.7452 15.41996179 28886,6818.356,93.385,442.578,437.863,0.0
55957.0,STARLINK-5884,PAYLOAD,2023-09-14 22:00:00,15.41343055,0.0003327,70.0005,32.7323,278.4358,222.7639,-0.0246,-0.00943208,0.0,0 STARLINK-5884,1 55957U 23037AV  23257.91667824 -.00943208  00000-0 -24600-1 0  9999,2 55957  70.0005  32.7323 0003327 278.4358 222.7639 15.41343055  6049,6820.282,93.425,444.416,439.877,0.0
55957.0,STARLINK-5884,PAYLOAD,2023-09-15 06:00:00,15.406345,0.0003254,70.0006,31.8352,270.8325,279.0284,-0.022545,-0.00851541,0.0,0 STARLINK-5884,1 55957U 23037AV  23258.25001157 -.00851541  00000-0 -22545-1 0  9992,2 55957  70.0006  31.8352 0003254 270.8325 279.0284 15.40634500 28986,6822.373,93.468,446.458,442.018,0.0
55957.0,STARLINK-5884,PAYLOAD,2023-09-15 14:00:01,15.40029361,0.0003334,70.0009,30.9388,273.999,323.7142,-0.025432,-0.00934234,0.0,0 STARLINK-5884,1 55957U 23037AV  23258.58334491 -.00934234  00000-0 -25432-1 0  9997,2 55957  70.0009  30.9388 0003334 273.9990 323.7142 15.40029361  5976,6824.16,93.505,448.3,443.749,0.0
55957.0,STARLINK-5884,PAYLOAD,2023-09-15 22:00:00,15.39388824,0.0003431,70.0006,30.0432,276.5308,8.2578,-0.02647,-0.00950569,0.0,0 STARLINK-5884,1 55957U 23037AV  23258.91667824 -.00950569  00000-0 -26470-1 0  9995,2 55957  70.0006  30.0432 0003431 276.5308   8.2578 15.39388824 29091,6826.052,93.544,450.259,445.575,0.0
55957.0,STARLINK-5884,PAYLOAD,2023-09-16 14:00:01,15.38072877,0.0003502,70.0012,28.255,276.4368,100.1722,-0.027189,-0.00936404,0.0,0 STARLINK-5884,1 55957U 23037AV  23259.58334491 -.00936404  00000-0 -27189-1 0  9990,2 55957  70.0012  28.2550 0003502 276.4368 100.1722 15.38072877 29193,6829.945,93.624,454.202,449.419,0.0
55957.0,STARLINK-5884,PAYLOAD,2023-09-17 14:00:01,15.36112879,0.0003451,70.0015,25.5789,277.8803,230.5837,-0.028849,-0.00932654,0.0,0 STARLINK-5884,1 55957U 23037AV  23260.58334491 -.00932654  00000-0 -28849-1 0  9999,2 55957  70.0015  25.5789 0003451 277.8803 230.5837 15.36112879  5961,6835.754,93.743,459.978,455.26,0.0
55957.0,STARLINK-5884,PAYLOAD,2023-09-17 22:00:00,15.35473878,0.0003383,70.0011,24.6885,279.5348,271.3094,-0.030044,-0.00949927,0.0,0 STARLINK-5884,1 55957U 23037AV  23260.91667824 -.00949927  00000-0 -30044-1 0  9996,2 55957  70.0011  24.6885 0003383 279.5348 271.3094 15.35473878 29390,6837.65,93.782,461.828,457.202,0.0
55957.0,STARLINK-5884,PAYLOAD,2023-09-18 14:00:01,15.34153332,0.0003436,70.0015,22.9107,275.8978,357.381,-0.03049,-0.00926272,0.0,0 STARLINK-5884,1 55957U 23037AV  23261.58334491 -.00926272  00000-0 -30490-1 0  9994,2 55957  70.0015  22.9107 0003436 275.8978 357.3810 15.34153332 29502,6841.573,93.863,465.789,461.088,0.0
55957.0,STARLINK-5884,PAYLOAD,2023-09-18 22:00:00,15.33517791,0.0003509,70.0012,22.0228,278.4179,34.8931,-0.032068,-0.00952361,0.0,0 STARLINK-5884,1 55957U 23037AV  23261.91667824 -.00952361  00000-0 -32068-1 0  9991,2 55957  70.0012  22.0228 0003509 278.4179  34.8931 15.33517791  5852,6843.464,93.902,467.73,462.927,0.0
55957.0,STARLINK-5884,PAYLOAD,2023-09-19 22:00:00,15.31557432,0.0004168,70.001,19.3652,278.0445,150.6948,-0.034032,-0.00950475,0.0,0 STARLINK-5884,1 55957U 23037AV  23262.91667824 -.00950475  00000-0 -34032-1 0  9999,2 55957  70.0010  19.3652 0004168 278.0445 150.6948 15.31557432 29703,6849.302,94.022,474.022,468.312,0.0
55957.0,STARLINK-5884,PAYLOAD,2023-09-20 14:00:01,15.30235789,0.0003634,70.0009,17.5979,275.7023,226.079,-0.034054,-0.00915606,0.0,0 STARLINK-5884,1 55957U 23037AV  23263.58334491 -.00915606  00000-0 -34054-1 0  9995,2 55957  70.0009  17.5979 0003634 275.7023 226.0790 15.30235789 29807,6853.245,94.103,477.601,472.62,0.0
55957.0,STARLINK-5884,PAYLOAD,2023-09-20 22:00:00,15.29609698,0.0003321,70.0009,16.7154,277.5146,259.6064,-0.036588,-0.00973024,0.0,0 STARLINK-5884,1 55957U 23037AV  23263.91667824 -.00973024  00000-0 -36588-1 0  9993,2 55957  70.0009  16.7154 0003321 277.5146 259.6064 15.29609698  6018,6855.115,94.142,479.257,474.704,0.0
55957.0,STARLINK-5884,PAYLOAD,2023-09-21 14:00:01,15.28266927,0.0003342,70.0008,14.9536,276.0799,329.4021,-0.035491,-0.00899307,0.0,0 STARLINK-5884,1 55957U 23037AV  23264.58334491 -.00899307  00000-0 -35491-1 0  9991,2 55957  70.0008  14.9536 0003342 276.0799 329.4021 15.28266927 29963,6859.13,94.224,483.287,478.703,0.0
55957.0,STARLINK-5884,PAYLOAD,2023-09-21 22:00:01,15.27649728,0.0003333,70.0005,14.0737,276.9872,1.5461,-0.038844,-0.00972652,0.0,0 STARLINK-5884,1 55957U 23037AV  23264.91668981 -.00972652  00000-0 -38844-1 0  9992,2 55957  70.0005  14.0737 0003333 276.9872   1.5461 15.27649728  5913,6860.977,94.262,485.129,480.556,0.0
55957.0,STARLINK-5884,PAYLOAD,2023-09-22 06:00:00,15.26955814,0.0003374,70.0008,13.195,272.3872,38.3059,-0.035845,-0.00874696,0.0,0 STARLINK-5884,1 55957U 23037AV  23265.25001157 -.00874696  00000-0 -35845-1 0  9993,2 55957  70.0008  13.1950 0003374 272.3872  38.3059 15.26955814 30068,6863.056,94.305,487.236,482.605,0.0
55957.0,STARLINK-5884,PAYLOAD,2023-09-22 14:00:01,15.26314388,0.0003469,70.0007,12.3169,278.0391,64.0929,-0.037924,-0.00904921,0.0,0 STARLINK-5884,1 55957U 23037AV  23265.58334491 -.00904921  00000-0 -37924-1 0  9994,2 55957  70.0007  12.3169 0003469 278.0391  64.0929 15.26314388  6020,6864.978,94.345,489.225,484.462,0.0
55957.0,STARLINK-5884,PAYLOAD,2023-09-22 22:00:00,15.25688887,0.0003424,70.0005,11.4396,279.4592,93.3172,-0.040979,-0.00967233,0.0,0 STARLINK-5884,1 55957U 23037AV  23265.91667824 -.00967233  00000-0 -40979-1 0  9999,2 55957  70.0005  11.4396 0003424 279.4592  93.3172 15.25688887 30163,6866.855,94.384,491.071,486.368,0.0
55957.0,STARLINK-5884,PAYLOAD,2023-09-23 14:00:01,15.24359738,0.0003425,70.0009,9.6879,280.9165,150.8266,-0.040436,-0.00920561,0.0,0 STARLINK-5884,1 55957U 23037AV  23266.58334491 -.00920561  00000-0 -40436-1 0  9995,2 55957  70.0009   9.6879 0003425 280.9165 150.8266 15.24359738 30269,6870.846,94.466,495.064,490.357,0.0
55957.0,STARLINK-5884,PAYLOAD,2023-09-24 14:00:01,15.2239932,0.0003244,70.001,7.0667,278.7628,235.5528,-0.042595,-0.00915102,0.0,0 STARLINK-5884,1 55957U 23037AV  23267.58334491 -.00915102  00000-0 -42595-1 0  9999,2 55957  70.0010   7.0667 0003244 278.7628 235.5528 15.22399320 30414,6876.743,94.588,500.839,496.377,0.0
55957.0,STARLINK-5884,PAYLOAD,2023-09-24 22:00:00,15.21772107,0.0003194,70.0008,6.1946,276.4551,263.8104,-0.045791,-0.0096193,0.0,0 STARLINK-5884,1 55957U 23037AV  23267.91667824 -.00961930  00000-0 -45791-1 0  9996,2 55957  70.0008   6.1946 0003194 276.4551 263.8104 15.21772107  6015,6878.632,94.627,502.694,498.3,0.0
55957.0,STARLINK-5884,PAYLOAD,2023-09-25 14:00:01,15.20439561,0.000328,70.0013,4.4535,276.0073,313.9026,-0.04488,-0.00910497,0.0,0 STARLINK-5884,1 55957U 23037AV  23268.58335648 -.00910497  00000-0 -44880-1 0  9996,2 55957  70.0013   4.4535 0003280 276.0073 313.9026 15.20439561 30578,6882.651,94.709,506.773,502.258,0.0
55957.0,STARLINK-5884,PAYLOAD,2023-09-25 22:00:00,15.19814522,0.000328,70.0012,3.5843,274.8244,338.6244,-0.048472,-0.00961467,0.0,0 STARLINK-5884,1 55957U 23037AV  23268.91667824 -.00961467  00000-0 -48472-1 0  9991,2 55957  70.0012   3.5843 0003280 274.8244 338.6244 15.19814522  5968,6884.538,94.748,508.661,504.145,0.0
55957.0,STARLINK-5884,PAYLOAD,2023-09-26 14:00:01,15.18483299,0.0003348,70.0017,1.8484,276.0478,22.3512,-0.047517,-0.00910639,0.0,0 STARLINK-5884,1 55957U 23037AV  23269.58335648 -.00910639  00000-0 -47517-1 0  9995,2 55957  70.0017   1.8484 0003348 276.0478  22.3512 15.18483299 30722,6888.561,94.831,512.732,508.119,0.0
55957.0,STARLINK-5884,PAYLOAD,2023-09-26 22:00:00,15.17855174,0.0003369,70.0014,0.9818,275.1338,44.4588,-0.051117,-0.00958183,0.0,0 STARLINK-5884,1 55957U 23037AV  23269.91667824 -.00958183  00000-0 -51117-1 0  9993,2 55957  70.0014   0.9818 0003369 275.1338  44.4588 15.17855174  6026,6890.461,94.871,514.647,510.005,0.0
55957.0,STARLINK-5884,PAYLOAD,2023-09-27 14:00:01,15.16527639,0.000338,70.0019,359.2513,277.1811,82.6031,-0.05035,-0.00912009,0.0,0 STARLINK-5884,1 55957U 23037AV  23270.58334491 -.00912009  00000-0 -50350-1 0  9994,2 55957  70.0019 359.2513 0003380 277.1811  82.6031 15.16527639 30872,6894.482,94.954,518.677,514.016,0.0
55957.0,STARLINK-5884,PAYLOAD,2023-09-28 14:00:01,15.14570703,0.0003323,70.002,356.6619,278.444,135.8115,-0.053187,-0.00911229,0.0,0 STARLINK-5884,1 55957U 23037AV  23271.58335648 -.00911229  00000-0 -53187-1 0  9994,2 55957  70.0020 356.6619 0003323 278.4440 135.8115 15.14570703 31021,6900.419,95.076,524.577,519.991,0.0
55957.0,STARLINK-5884,PAYLOAD,2023-09-28 16:00:30,15.14393661,0.0003246,70.0019,356.4455,279.0797,231.2253,-0.051842,-0.00885644,0.0,0 STARLINK-5884,1 55957U 23037AV  23271.66702546 -.00885644  00000-0 -51842-1 0  9995,2 55957  70.0019 356.4455 0003246 279.0797 231.2253 15.14393661  6023,6900.957,95.088,525.062,520.582,0.0
55957.0,STARLINK-5884,PAYLOAD,2023-09-28 22:00:01,15.13935636,0.0003303,70.0016,355.8005,276.7764,154.0448,-0.05655,-0.00948595,0.0,0 STARLINK-5884,1 55957U 23037AV  23271.91668981 -.00948595  00000-0 -56550-1 0  9993,2 55957  70.0016 355.8005 0003303 276.7764 154.0448 15.13935636  6016,6902.349,95.116,526.494,521.934,0.0
